[{"OBJECT_NAME":"ONEWEB-0246","OBJECT_ID":"2021-045V","EPOCH":"2025-08-07T12:24:27.226656","MEAN_MOTION":13.15550927,"ECCENTRICITY":0.0002076,"INCLINATION":87.9086,"RA_OF_ASC_NODE":321.7299,"ARG_OF_PERICENTER":96.7114,"MEAN_ANOMALY":263.4252,"EPHEMERIS_TYPE":0,"CLASSIFICATION_TYPE":"U","NORAD_CAT_ID":48786,"ELEMENT_SET_NO":999,"REV_AT_EPOCH":20303,"BSTAR":0.00046918918,"MEAN_MOTION_DOT":1.89e-6,"MEAN_MOTION_DDOT":0},{"OBJECT_NAME":"ONEWEB-0210","OBJECT_ID":"2021-045W","EPOCH":"2025-08-07T13:37:29.349120","MEAN_MOTION":13.15548311,"ECCENTRICITY":0.00025017,"INCLINATION":87.9081,"RA_OF_ASC_NODE":321.7192,"ARG_OF_PERICENTER":88.0317,"MEAN_ANOMALY":272.11,"EPHEMERIS_TYPE":0,"CLASSIFICATION_TYPE":"U","NORAD_CAT_ID":48787,"ELEMENT_SET_NO":999,"REV_AT_EPOCH":20308,"BSTAR":0.00022563289,"MEAN_MOTION_DOT":9.8e-7,"MEAN_MOTION_DDOT":0},{"OBJECT_NAME":"ONEWEB-0214","OBJECT_ID":"2021-045X","EPOCH":"2025-08-07T08:21:29.587968","MEAN_MOTION":13.15546233,"ECCENTRICITY":0.00023933,"INCLINATION":87.908,"RA_OF_ASC_NODE":321.7515,"ARG_OF_PERICENTER":94.6838,"MEAN_ANOMALY":265.4566,"EPHEMERIS_TYPE":0,"CLASSIFICATION_TYPE":"U","NORAD_CAT_ID":48788,"ELEMENT_SET_NO":999,"REV_AT_EPOCH":20302,"BSTAR":0.00049266649,"MEAN_MOTION_DOT":1.98e-6,"MEAN_MOTION_DDOT":0},{"OBJECT_NAME":"ONEWEB-0221","OBJECT_ID":"2021-045Y","EPOCH":"2025-08-07T14:00:19.221984","MEAN_MOTION":13.15544589,"ECCENTRICITY":0.0002041,"INCLINATION":87.9075,"RA_OF_ASC_NODE":321.7335,"ARG_OF_PERICENTER":92.2143,"MEAN_ANOMALY":267.9221,"EPHEMERIS_TYPE":0,"CLASSIFICATION_TYPE":"U","NORAD_CAT_ID":48789,"ELEMENT_SET_NO":999,"REV_AT_EPOCH":20314,"BSTAR":0.0020115306,"MEAN_MOTION_DOT":7.7e-6,"MEAN_MOTION_DDOT":0},{"OBJECT_NAME":"ONEWEB-0213","OBJECT_ID":"2021-045Z","EPOCH":"2025-08-07T13:44:20.243328","MEAN_MOTION":13.1554785,"ECCENTRICITY":0.00020904,"INCLINATION":87.9079,"RA_OF_ASC_NODE":321.7432,"ARG_OF_PERICENTER":91.5449,"MEAN_ANOMALY":268.5921,"EPHEMERIS_TYPE":0,"CLASSIFICATION_TYPE":"U","NORAD_CAT_ID":48790,"ELEMENT_SET_NO":999,"REV_AT_EPOCH":20320,"BSTAR":0.00026760345,"MEAN_MOTION_DOT":1.14e-6,"MEAN_MOTION_DDOT":0},{"OBJECT_NAME":"ONEWEB-0212","OBJECT_ID":"2021-045AA","EPOCH":"2025-08-07T13:11:14.925120","MEAN_MOTION":13.15550099,"ECCENTRICITY":0.00018765,"INCLINATION":87.9078,"RA_OF_ASC_NODE":321.7295,"ARG_OF_PERICENTER":98.5915,"MEAN_ANOMALY":261.5428,"EPHEMERIS_TYPE":0,"CLASSIFICATION_TYPE":"U","NORAD_CAT_ID":48791,"ELEMENT_SET_NO":999,"REV_AT_EPOCH":20319,"BSTAR":-0.00011191614,"MEAN_MOTION_DOT":-2.9e-7,"MEAN_MOTION_DDOT":0},{"OBJECT_NAME":"ONEWEB-0227","OBJECT_ID":"2021-045AB","EPOCH":"2025-08-07T13:10:05.853504","MEAN_MOTION":13.15548783,"ECCENTRICITY":0.00019409,"INCLINATION":87.9075,"RA_OF_ASC_NODE":321.7495,"ARG_OF_PERICENTER":94.2145,"MEAN_ANOMALY":265.9207,"EPHEMERIS_TYPE":0,"CLASSIFICATION_TYPE":"U","NORAD_CAT_ID":48792,"ELEMENT_SET_NO":999,"REV_AT_EPOCH":20314,"BSTAR":-0.00018280953,"MEAN_MOTION_DOT":-5.6e-7,"MEAN_MOTION_DDOT":0},{"OBJECT_NAME":"ONEWEB-0226","OBJECT_ID":"2021-045AC","EPOCH":"2025-08-07T13:00:57.937536","MEAN_MOTION":13.15549985,"ECCENTRICITY":0.00022219,"INCLINATION":87.9085,"RA_OF_ASC_NODE":321.7552,"ARG_OF_PERICENTER":91.6131,"MEAN_ANOMALY":268.5254,"EPHEMERIS_TYPE":0,"CLASSIFICATION_TYPE":"U","NORAD_CAT_ID":48793,"ELEMENT_SET_NO":999,"REV_AT_EPOCH":20311,"BSTAR":-0.00021518787,"MEAN_MOTION_DOT":-6.8e-7,"MEAN_MOTION_DDOT":0},{"OBJECT_NAME":"ONEWEB-0224","OBJECT_ID":"2021-045AD","EPOCH":"2025-08-07T13:57:59.645376","MEAN_MOTION":13.15554281,"ECCENTRICITY":0.00012343,"INCLINATION":87.9075,"RA_OF_ASC_NODE":321.7844,"ARG_OF_PERICENTER":72.9948,"MEAN_ANOMALY":287.1318,"EPHEMERIS_TYPE":0,"CLASSIFICATION_TYPE":"U","NORAD_CAT_ID":48794,"ELEMENT_SET_NO":999,"REV_AT_EPOCH":20304,"BSTAR":-0.0031437861,"MEAN_MOTION_DOT":-1.171e-5,"MEAN_MOTION_DDOT":0},{"OBJECT_NAME":"ONEWEB-0233","OBJECT_ID":"2021-045AE","EPOCH":"2025-08-07T14:04:38.286336","MEAN_MOTION":13.1555058,"ECCENTRICITY":0.00019197,"INCLINATION":87.9088,"RA_OF_ASC_NODE":321.7923,"ARG_OF_PERICENTER":87.804,"MEAN_ANOMALY":272.331,"EPHEMERIS_TYPE":0,"CLASSIFICATION_TYPE":"U","NORAD_CAT_ID":48795,"ELEMENT_SET_NO":999,"REV_AT_EPOCH":20306,"BSTAR":0.00036046243,"MEAN_MOTION_DOT":1.49e-6,"MEAN_MOTION_DDOT":0},{"OBJECT_NAME":"ONEWEB-0190","OBJECT_ID":"2021-045AF","EPOCH":"2025-08-07T13:46:37.531200","MEAN_MOTION":13.15547417,"ECCENTRICITY":0.00022976,"INCLINATION":87.9084,"RA_OF_ASC_NODE":321.7594,"ARG_OF_PERICENTER":78.3072,"MEAN_ANOMALY":281.8316,"EPHEMERIS_TYPE":0,"CLASSIFICATION_TYPE":"U","NORAD_CAT_ID":48796,"ELEMENT_SET_NO":999,"REV_AT_EPOCH":20313,"BSTAR":0.0003106958,"MEAN_MOTION_DOT":1.3e-6,"MEAN_MOTION_DDOT":0},{"OBJECT_NAME":"ONEWEB-0236","OBJECT_ID":"2021-045AG","EPOCH":"2025-08-07T19:40:18.095232","MEAN_MOTION":13.15548118,"ECCENTRICITY":0.0001841,"INCLINATION":87.909,"RA_OF_ASC_NODE":321.7202,"ARG_OF_PERICENTER":101.6703,"MEAN_ANOMALY":258.4634,"EPHEMERIS_TYPE":0,"CLASSIFICATION_TYPE":"U","NORAD_CAT_ID":48797,"ELEMENT_SET_NO":999,"REV_AT_EPOCH":20417,"BSTAR":0.00013846,"MEAN_MOTION_DOT":6.5e-7,"MEAN_MOTION_DDOT":0},{"OBJECT_NAME":"ONEWEB-0248","OBJECT_ID":"2021-045AH","EPOCH":"2025-08-07T12:40:25.913280","MEAN_MOTION":13.15547551,"ECCENTRICITY":0.00017348,"INCLINATION":87.9084,"RA_OF_ASC_NODE":321.7322,"ARG_OF_PERICENTER":78.1255,"MEAN_ANOMALY":282.007,"EPHEMERIS_TYPE":0,"CLASSIFICATION_TYPE":"U","NORAD_CAT_ID":48798,"ELEMENT_SET_NO":999,"REV_AT_EPOCH":20317,"BSTAR":2.2425097e-5,"MEAN_MOTION_DOT":2.1e-7,"MEAN_MOTION_DDOT":0},{"OBJECT_NAME":"ONEWEB-0225","OBJECT_ID":"2021-045AJ","EPOCH":"2025-08-07T13:12:22.730112","MEAN_MOTION":13.15546836,"ECCENTRICITY":0.00021958,"INCLINATION":87.9083,"RA_OF_ASC_NODE":321.7597,"ARG_OF_PERICENTER":81.7388,"MEAN_ANOMALY":278.3991,"EPHEMERIS_TYPE":0,"CLASSIFICATION_TYPE":"U","NORAD_CAT_ID":48799,"ELEMENT_SET_NO":999,"REV_AT_EPOCH":20318,"BSTAR":-0.00021530164,"MEAN_MOTION_DOT":-6.8e-7,"MEAN_MOTION_DDOT":0},{"OBJECT_NAME":"ONEWEB-0215","OBJECT_ID":"2021-045AK","EPOCH":"2025-08-07T12:29:02.007168","MEAN_MOTION":13.15548407,"ECCENTRICITY":0.0001998,"INCLINATION":87.9086,"RA_OF_ASC_NODE":321.7161,"ARG_OF_PERICENTER":77.2452,"MEAN_ANOMALY":282.8902,"EPHEMERIS_TYPE":0,"CLASSIFICATION_TYPE":"U","NORAD_CAT_ID":48800,"ELEMENT_SET_NO":999,"REV_AT_EPOCH":20305,"BSTAR":0.00013780829,"MEAN_MOTION_DOT":6.5e-7,"MEAN_MOTION_DDOT":0},{"OBJECT_NAME":"ONEWEB-0216","OBJECT_ID":"2021-045AL","EPOCH":"2025-08-07T18:11:18.656448","MEAN_MOTION":13.15547687,"ECCENTRICITY":0.0002139,"INCLINATION":87.9076,"RA_OF_ASC_NODE":321.7139,"ARG_OF_PERICENTER":98.0407,"MEAN_ANOMALY":262.0966,"EPHEMERIS_TYPE":0,"CLASSIFICATION_TYPE":"U","NORAD_CAT_ID":48801,"ELEMENT_SET_NO":999,"REV_AT_EPOCH":20421,"BSTAR":-0.00016768,"MEAN_MOTION_DOT":-5.0e-7,"MEAN_MOTION_DDOT":0}]
