ONEWEB-0246             
1 48786U 21045V   25219.51698179  .00000189  00000+0  46919-3 0  9999
2 48786  87.9086 321.7299 0002076  96.7114 263.4252 13.15550927203039
ONEWEB-0210             
1 48787U 21045W   25219.56770080  .00000098  00000+0  22563-3 0  9995
2 48787  87.9081 321.7192 0002501  88.0317 272.1100 13.15548311203087
ONEWEB-0214             
1 48788U 21045X   25219.34825912  .00000198  00000+0  49267-3 0  9998
2 48788  87.9080 321.7515 0002393  94.6838 265.4566 13.15546233203022
ONEWEB-0221             
1 48789U 21045Y   25219.58355581  .00000770  00000+0  20115-2 0  9991
2 48789  87.9075 321.7335 0002041  92.2143 267.9221 13.15544589203140
ONEWEB-0213             
1 48790U 21045Z   25219.57245652  .00000114  00000+0  26760-3 0  9994
2 48790  87.9079 321.7432 0002090  91.5449 268.5921 13.15547850203204
ONEWEB-0212             
1 48791U 21045AA  25219.54947830 -.00000029  00000+0 -11192-3 0  9999
2 48791  87.9078 321.7295 0001876  98.5915 261.5428 13.15550099203199
ONEWEB-0227             
1 48792U 21045AB  25219.54867886 -.00000056  00000+0 -18281-3 0  9998
2 48792  87.9075 321.7495 0001940  94.2145 265.9207 13.15548783203144
ONEWEB-0226             
1 48793U 21045AC  25219.54233724 -.00000068  00000+0 -21519-3 0  9998
2 48793  87.9085 321.7552 0002221  91.6131 268.5254 13.15549985203112
ONEWEB-0224             
1 48794U 21045AD  25219.58194034 -.00001171  00000+0 -31438-2 0  9999
2 48794  87.9075 321.7844 0001234  72.9948 287.1318 13.15554281203042
ONEWEB-0233             
1 48795U 21045AE  25219.58655424  .00000149  00000+0  36046-3 0  9998
2 48795  87.9088 321.7923 0001919  87.8040 272.3310 13.15550580203061
ONEWEB-0190             
1 48796U 21045AF  25219.57404550  .00000130  00000+0  31070-3 0  9992
2 48796  87.9084 321.7594 0002297  78.3072 281.8316 13.15547417203136
ONEWEB-0236             
1 48797U 21045AG  25219.81965388  .00000065  00000+0  13846-3 0  9999
2 48797  87.9090 321.7202 0001841 101.6703 258.4634 13.15548118204172
ONEWEB-0248             
1 48798U 21045AH  25219.52807770  .00000021  00000+0  22425-4 0  9994
2 48798  87.9084 321.7322 0001734  78.1255 282.0070 13.15547551203176
ONEWEB-0225             
1 48799U 21045AJ  25219.55026308 -.00000068  00000+0 -21530-3 0  9996
2 48799  87.9083 321.7597 0002195  81.7388 278.3991 13.15546836203185
ONEWEB-0215             
1 48800U 21045AK  25219.52016212  .00000065  00000+0  13781-3 0  9993
2 48800  87.9086 321.7161 0001998  77.2452 282.8902 13.15548407203054
ONEWEB-0216             
1 48801U 21045AL  25219.75785482 -.00000050  00000+0 -16768-3 0  9995
2 48801  87.9076 321.7139 0002139  98.0407 262.0966 13.15547687204216
